{
  "type": "FeatureCollection",
  "features": [
    {
      "type": "Feature",
      "properties": {
        "norad_id": 49537,
        "name": "COSMOS 1408 DEB",
        "group": "cosmos-1408-debris",
        "lat": 75.5937812224637,
        "lon": 135.3938834150075,
        "alt_km": 117.49953438900593,
        "timestamp": "2025-12-03T13:52:09.831990+00:00",
        "meta_object_name": "COSMOS 1408 DEB",
        "meta_object_id": "1982-092AA",
        "meta_epoch": "2025-12-01T10:29:21.651360",
        "meta_mean_motion": 16.33498888,
        "meta_eccentricity": 0.00127731,
        "meta_inclination": 82.5092,
        "meta_ra_of_asc_node": 107.1368,
        "meta_arg_of_pericenter": 299.8571,
        "meta_mean_anomaly": 60.1455,
        "meta_ephemeris_type": 0,
        "meta_classification_type": "U",
        "meta_norad_cat_id": 49537,
        "meta_element_set_no": 999,
        "meta_rev_at_epoch": 22403,
        "meta_bstar": 0.00094222941,
        "meta_mean_motion_dot": 0.05878558,
        "meta_mean_motion_ddot": -1.252052e-06,
        "tle_line1": "1 49537U 82092AA  25335.43705615  .05878558 -12521-5  94223-3 0  9994",
        "tle_line2": "2 49537  82.5092 107.1368 0012773 299.8571  60.1455 16.33498888224033"
      },
      "geometry": {
        "type": "Point",
        "coordinates": [
          135.3938834150075,
          75.5937812224637
        ]
      }
    },
    {
      "type": "Feature",
      "properties": {
        "norad_id": 50032,
        "name": "COSMOS 1408 DEB",
        "group": "cosmos-1408-debris",
        "lat": -57.71252665687526,
        "lon": 55.970783258932315,
        "alt_km": 431.4531599835336,
        "timestamp": "2025-12-03T13:52:09.832011+00:00",
        "meta_object_name": "COSMOS 1408 DEB",
        "meta_object_id": "1982-092RU",
        "meta_epoch": "2025-12-03T06:21:09.734400",
        "meta_mean_motion": 15.45540484,
        "meta_eccentricity": 0.00146794,
        "meta_inclination": 82.5655,
        "meta_ra_of_asc_node": 68.2184,
        "meta_arg_of_pericenter": 245.8027,
        "meta_mean_anomaly": 114.1688,
        "meta_ephemeris_type": 0,
        "meta_classification_type": "U",
        "meta_norad_cat_id": 50032,
        "meta_element_set_no": 999,
        "meta_rev_at_epoch": 22457,
        "meta_bstar": 0.00015452341,
        "meta_mean_motion_dot": 7.487e-05,
        "meta_mean_motion_ddot": 0,
        "tle_line1": "1 50032U 82092RU  25337.26469600  .00007487  00000+0  15452-3 0  9999",
        "tle_line2": "2 50032  82.5655  68.2184 0014679 245.8027 114.1688 15.45540484224576"
      },
      "geometry": {
        "type": "Point",
        "coordinates": [
          55.970783258932315,
          -57.71252665687526
        ]
      }
    },
    {
      "type": "Feature",
      "properties": {
        "norad_id": 50058,
        "name": "COSMOS 1408 DEB",
        "group": "cosmos-1408-debris",
        "lat": -82.41444751450778,
        "lon": -24.131090728402636,
        "alt_km": 393.626604442853,
        "timestamp": "2025-12-03T13:52:09.832025+00:00",
        "meta_object_name": "COSMOS 1408 DEB",
        "meta_object_id": "1982-092SW",
        "meta_epoch": "2025-12-03T08:07:02.388576",
        "meta_mean_motion": 15.63243355,
        "meta_eccentricity": 0.00162902,
        "meta_inclination": 82.6136,
        "meta_ra_of_asc_node": 79.1744,
        "meta_arg_of_pericenter": 132.3779,
        "meta_mean_anomaly": 227.8861,
        "meta_ephemeris_type": 0,
        "meta_classification_type": "U",
        "meta_norad_cat_id": 50058,
        "meta_element_set_no": 999,
        "meta_rev_at_epoch": 22657,
        "meta_bstar": 0.00042304369,
        "meta_mean_motion_dot": 0.00039112,
        "meta_mean_motion_ddot": 0,
        "tle_line1": "1 50058U 82092SW  25337.33822209  .00039112  00000+0  42304-3 0  9999",
        "tle_line2": "2 50058  82.6136  79.1744 0016290 132.3779 227.8861 15.63243355226571"
      },
      "geometry": {
        "type": "Point",
        "coordinates": [
          -24.131090728402636,
          -82.41444751450778
        ]
      }
    },
    {
      "type": "Feature",
      "properties": {
        "norad_id": 50404,
        "name": "COSMOS 1408 DEB",
        "group": "cosmos-1408-debris",
        "lat": -72.14550291511878,
        "lon": 69.56304758879882,
        "alt_km": 425.5333943327705,
        "timestamp": "2025-12-03T13:52:09.832037+00:00",
        "meta_object_name": "COSMOS 1408 DEB",
        "meta_object_id": "1982-092ADS",
        "meta_epoch": "2025-12-03T03:12:53.924544",
        "meta_mean_motion": 15.11741121,
        "meta_eccentricity": 0.01766229,
        "meta_inclination": 82.2064,
        "meta_ra_of_asc_node": 224.8525,
        "meta_arg_of_pericenter": 232.1925,
        "meta_mean_anomaly": 126.3205,
        "meta_ephemeris_type": 0,
        "meta_classification_type": "U",
        "meta_norad_cat_id": 50404,
        "meta_element_set_no": 999,
        "meta_rev_at_epoch": 21048,
        "meta_bstar": 0.0034989906,
        "meta_mean_motion_dot": 0.00088069,
        "meta_mean_motion_ddot": 0,
        "tle_line1": "1 50404U 82092ADS 25337.13395746  .00088069  00000+0  34990-2 0  9999",
        "tle_line2": "2 50404  82.2064 224.8525 0176622 232.1925 126.3205 15.11741121210481"
      },
      "geometry": {
        "type": "Point",
        "coordinates": [
          69.56304758879882,
          -72.14550291511878
        ]
      }
    },
    {
      "type": "Feature",
      "properties": {
        "norad_id": 50621,
        "name": "COSMOS 1408 DEB",
        "group": "cosmos-1408-debris",
        "lat": 11.973811107759383,
        "lon": -97.87369033142183,
        "alt_km": 382.3359539383964,
        "timestamp": "2025-12-03T13:52:09.832049+00:00",
        "meta_object_name": "COSMOS 1408 DEB",
        "meta_object_id": "1982-092ALR",
        "meta_epoch": "2025-12-03T00:48:05.547456",
        "meta_mean_motion": 15.55877061,
        "meta_eccentricity": 0.00288902,
        "meta_inclination": 82.5703,
        "meta_ra_of_asc_node": 84.2784,
        "meta_arg_of_pericenter": 188.0266,
        "meta_mean_anomaly": 172.0531,
        "meta_ephemeris_type": 0,
        "meta_classification_type": "U",
        "meta_norad_cat_id": 50621,
        "meta_element_set_no": 999,
        "meta_rev_at_epoch": 22099,
        "meta_bstar": 0.00051794749,
        "meta_mean_motion_dot": 0.00036668,
        "meta_mean_motion_ddot": 0,
        "tle_line1": "1 50621U 82092ALR 25337.03339754  .00036668  00000+0  51795-3 0  9997",
        "tle_line2": "2 50621  82.5703  84.2784 0028890 188.0266 172.0531 15.55877061220998"
      },
      "geometry": {
        "type": "Point",
        "coordinates": [
          -97.87369033142183,
          11.973811107759383
        ]
      }
    }
  ]
}